STARLINK-1472_new
1 15736C 20038G   21326.14270098 -.00005474  00000-0 -36684-3 0  3269
2 15736  53.0543  78.0978 0001146  78.0793 328.5689 15.06399094    10
STARLINK-1472_old
1 25736C 20038G   21325.18039211  .00006004  00000-0  40219-3 0  3258
2 25736  53.0539  82.4176 0001108  78.5162 146.5686 15.06401068    17
